start=new Date('2022-03-31T00:00:00.000Z').valueOf();
sats=[{"CENTER_NAME":"EARTH","MEAN_MOTION":"15.06399335","ARG_OF_PERICENTER":"61.1574","CLASSIFICATION_TYPE":"U","TIME_SYSTEM":"UTC","ECCENTRICITY":"0.00016860","COUNTRY_CODE":"US","MEAN_ANOMALY":"298.9584","APOAPSIS":"548.383","RA_OF_ASC_NODE":"195.6905","OBJECT_TYPE":"PAYLOAD","MEAN_ELEMENT_THEORY":"SGP4","OBJECT_NAME":"STARLINK-2170","TLE_LINE2":"2 47753  53.0565 195.6905 0001686  61.1574 298.9584 15.06399335 60748","EPHEMERIS_TYPE":"0","RCS_SIZE":"LARGE","NORAD_CAT_ID":"47753","REF_FRAME":"TEME","INCLINATION":"53.0565","MEAN_MOTION_DDOT":"0.0000000000000","EPOCH":"2022-03-30T18:23:45.271680","GP_ID":"200097162","BSTAR":"-0.00001923200000","DECAY_DATE":null,"PERIAPSIS":"546.048","FILE":"3380787","MEAN_MOTION_DOT":"-0.00000568","SEMIMAJOR_AXIS":"6925.351","OBJECT_ID":"2021-017AH","PERIOD":"95.592","LAUNCH_DATE":"2021-03-04","TLE_LINE1":"1 47753U 21017AH  22089.76649620 -.00000568  00000-0 -19232-4 0  9990","REV_AT_EPOCH":"6074","SITE":"AFETR","ELEMENT_SET_NO":"999"},{"BSTAR":"-0.00007024500000","DECAY_DATE":null,"FILE":"3380787","PERIAPSIS":"546.274","MEAN_MOTION_DOT":"-0.00001327","OBJECT_ID":"2021-017AJ","SEMIMAJOR_AXIS":"6925.396","PERIOD":"95.593","LAUNCH_DATE":"2021-03-04","TLE_LINE1":"1 47754U 21017AJ  22089.80335128 -.00001327  00000-0 -70245-4 0  9996","SITE":"AFETR","REV_AT_EPOCH":"6071","ELEMENT_SET_NO":"999","NORAD_CAT_ID":"47754","REF_FRAME":"TEME","INCLINATION":"53.0548","MEAN_MOTION_DDOT":"0.0000000000000","EPOCH":"2022-03-30T19:16:49.550592","GP_ID":"200097913","APOAPSIS":"548.249","RA_OF_ASC_NODE":"195.5313","OBJECT_TYPE":"PAYLOAD","MEAN_ELEMENT_THEORY":"SGP4","OBJECT_NAME":"STARLINK-2171","TLE_LINE2":"2 47754  53.0548 195.5313 0001426  50.2589 309.8526 15.06384387 60715","EPHEMERIS_TYPE":"0","RCS_SIZE":"LARGE","CENTER_NAME":"EARTH","MEAN_MOTION":"15.06384387","ARG_OF_PERICENTER":"50.2589","CLASSIFICATION_TYPE":"U","ECCENTRICITY":"0.00014260","TIME_SYSTEM":"UTC","COUNTRY_CODE":"US","MEAN_ANOMALY":"309.8526"},{"GP_ID":"200071551","NORAD_CAT_ID":"47755","MEAN_MOTION_DDOT":"0.0000000000000","EPOCH":"2022-03-30T11:45:01.080576","INCLINATION":"53.0502","REF_FRAME":"TEME","LAUNCH_DATE":"2021-03-04","PERIOD":"91.587","ELEMENT_SET_NO":"999","REV_AT_EPOCH":"6116","SITE":"AFETR","TLE_LINE1":"1 47755U 21017AK  22089.48959584  .00030140  00000-0  22695-3 0  9997","PERIAPSIS":"348.133","FILE":"3380779","DECAY_DATE":null,"BSTAR":"0.00022695000000","SEMIMAJOR_AXIS":"6730.553","OBJECT_ID":"2021-017AK","MEAN_MOTION_DOT":"0.00030140","MEAN_ANOMALY":"56.7661","COUNTRY_CODE":"US","CENTER_NAME":"EARTH","TIME_SYSTEM":"UTC","ECCENTRICITY":"0.00063670","CLASSIFICATION_TYPE":"U","ARG_OF_PERICENTER":"303.2746","MEAN_MOTION":"15.72268067","TLE_LINE2":"2 47755  53.0502 161.0810 0006367 303.2746  56.7661 15.72268067 61168","OBJECT_NAME":"STARLINK-2172","MEAN_ELEMENT_THEORY":"SGP4","RCS_SIZE":"LARGE","EPHEMERIS_TYPE":"0","OBJECT_TYPE":"PAYLOAD","RA_OF_ASC_NODE":"161.0810","APOAPSIS":"356.704"},{"RA_OF_ASC_NODE":"196.4399","APOAPSIS":"548.138","OBJECT_TYPE":"PAYLOAD","RCS_SIZE":"LARGE","EPHEMERIS_TYPE":"0","OBJECT_NAME":"STARLINK-2174","TLE_LINE2":"2 47756  53.0541 196.4399 0001334  63.0994 297.0131 15.06399883 60722","MEAN_ELEMENT_THEORY":"SGP4","ARG_OF_PERICENTER":"63.0994","CLASSIFICATION_TYPE":"U","ECCENTRICITY":"0.00013340","TIME_SYSTEM":"UTC","MEAN_MOTION":"15.06399883","CENTER_NAME":"EARTH","COUNTRY_CODE":"US","MEAN_ANOMALY":"297.0131","OBJECT_ID":"2021-017AL","SEMIMAJOR_AXIS":"6925.349","MEAN_MOTION_DOT":"0.00002346","DECAY_DATE":null,"FILE":"3380787","PERIAPSIS":"546.290","BSTAR":"0.00017635000000","SITE":"AFETR","REV_AT_EPOCH":"6072","ELEMENT_SET_NO":"999","TLE_LINE1":"1 47756U 21017AL  22089.60062579  .00002346  00000-0  17635-3 0  9996","LAUNCH_DATE":"2021-03-04","PERIOD":"95.592","MEAN_MOTION_DDOT":"0.0000000000000","EPOCH":"2022-03-30T14:24:54.068256","REF_FRAME":"TEME","INCLINATION":"53.0541","NORAD_CAT_ID":"47756","GP_ID":"200096911"},{"NORAD_CAT_ID":"47757","MEAN_MOTION_DDOT":"0.0000000000000","EPOCH":"2022-03-30T17:14:45.674016","REF_FRAME":"TEME","INCLINATION":"53.0546","GP_ID":"200097663","DECAY_DATE":null,"FILE":"3380787","PERIAPSIS":"546.054","BSTAR":"0.00029621000000","OBJECT_ID":"2021-017AM","SEMIMAJOR_AXIS":"6925.355","MEAN_MOTION_DOT":"0.00004133","LAUNCH_DATE":"2021-03-04","PERIOD":"95.592","REV_AT_EPOCH":"6068","SITE":"AFETR","ELEMENT_SET_NO":"999","TLE_LINE1":"1 47757U 21017AM  22089.71858419  .00004133  00000-0  29621-3 0  9999","CENTER_NAME":"EARTH","CLASSIFICATION_TYPE":"U","ARG_OF_PERICENTER":"48.5047","ECCENTRICITY":"0.00016830","TIME_SYSTEM":"UTC","MEAN_MOTION":"15.06397967","COUNTRY_CODE":"US","MEAN_ANOMALY":"311.6086","RA_OF_ASC_NODE":"195.9133","APOAPSIS":"548.385","OBJECT_TYPE":"PAYLOAD","OBJECT_NAME":"STARLINK-2175","TLE_LINE2":"2 47757  53.0546 195.9133 0001683  48.5047 311.6086 15.06397967 60680","MEAN_ELEMENT_THEORY":"SGP4","RCS_SIZE":"LARGE","EPHEMERIS_TYPE":"0"},{"CENTER_NAME":"EARTH","TIME_SYSTEM":"UTC","ECCENTRICITY":"0.00057590","CLASSIFICATION_TYPE":"U","ARG_OF_PERICENTER":"299.4516","MEAN_MOTION":"15.79227967","MEAN_ANOMALY":"60.5930","COUNTRY_CODE":"US","OBJECT_TYPE":"PAYLOAD","APOAPSIS":"336.494","RA_OF_ASC_NODE":"166.1153","TLE_LINE2":"2 47758  53.0546 166.1153 0005759 299.4516  60.5930 15.79227967 61141","OBJECT_NAME":"STARLINK-2176","MEAN_ELEMENT_THEORY":"SGP4","RCS_SIZE":"LARGE","EPHEMERIS_TYPE":"0","NORAD_CAT_ID":"47758","MEAN_MOTION_DDOT":"0.0000000000000","EPOCH":"2022-03-30T11:56:59.202816","INCLINATION":"53.0546","REF_FRAME":"TEME","GP_ID":"200071302","FILE":"3380779","PERIAPSIS":"328.764","DECAY_DATE":null,"BSTAR":"0.00071290000000","OBJECT_ID":"2021-017AN","SEMIMAJOR_AXIS":"6710.764","MEAN_MOTION_DOT":"0.00131975","LAUNCH_DATE":"2021-03-04","PERIOD":"91.184","ELEMENT_SET_NO":"999","REV_AT_EPOCH":"6114","SITE":"AFETR","TLE_LINE1":"1 47758U 21017AN  22089.49790744  .00131975  00000-0  71290-3 0  9995"},{"MEAN_ANOMALY":"306.2741","COUNTRY_CODE":"US","CENTER_NAME":"EARTH","MEAN_MOTION":"15.06393896","ECCENTRICITY":"0.00017430","TIME_SYSTEM":"UTC","ARG_OF_PERICENTER":"53.8409","CLASSIFICATION_TYPE":"U","MEAN_ELEMENT_THEORY":"SGP4","TLE_LINE2":"2 47760  53.0533 205.4612 0001743  53.8409 306.2741 15.06393896 60592","OBJECT_NAME":"STARLINK-2178","EPHEMERIS_TYPE":"0","RCS_SIZE":"LARGE","OBJECT_TYPE":"PAYLOAD","RA_OF_ASC_NODE":"205.4612","APOAPSIS":"548.439","GP_ID":"200096161","NORAD_CAT_ID":"47760","INCLINATION":"53.0533","REF_FRAME":"TEME","MEAN_MOTION_DDOT":"0.0000000000000","EPOCH":"2022-03-30T19:36:44.177472","PERIOD":"95.593","LAUNCH_DATE":"2021-03-04","TLE_LINE1":"1 47760U 21017AQ  22089.81717798  .00001123  00000-0  94274-4 0  9991","ELEMENT_SET_NO":"999","SITE":"AFETR","REV_AT_EPOCH":"6059","BSTAR":"0.00009427400000","FILE":"3380787","PERIAPSIS":"546.025","DECAY_DATE":null,"MEAN_MOTION_DOT":"0.00001123","OBJECT_ID":"2021-017AQ","SEMIMAJOR_AXIS":"6925.367"},{"MEAN_ELEMENT_THEORY":"SGP4","OBJECT_NAME":"STARLINK-2179","TLE_LINE2":"2 47761  53.0546 196.5197 0001430  60.2024 299.9107 15.06393517 60676","EPHEMERIS_TYPE":"0","RCS_SIZE":"LARGE","RA_OF_ASC_NODE":"196.5197","APOAPSIS":"548.224","OBJECT_TYPE":"PAYLOAD","COUNTRY_CODE":"US","MEAN_ANOMALY":"299.9107","CENTER_NAME":"EARTH","MEAN_MOTION":"15.06393517","CLASSIFICATION_TYPE":"U","ARG_OF_PERICENTER":"60.2024","ECCENTRICITY":"0.00014300","TIME_SYSTEM":"UTC","PERIOD":"95.593","LAUNCH_DATE":"2021-03-04","TLE_LINE1":"1 47761U 21017AR  22089.58220793  .00018356  00000-0  12482-2 0  9995","SITE":"AFETR","REV_AT_EPOCH":"6067","ELEMENT_SET_NO":"999","BSTAR":"0.00124820000000","DECAY_DATE":null,"FILE":"3380779","PERIAPSIS":"546.243","MEAN_MOTION_DOT":"0.00018356","SEMIMAJOR_AXIS":"6925.368","OBJECT_ID":"2021-017AR","GP_ID":"200072303","NORAD_CAT_ID":"47761","REF_FRAME":"TEME","INCLINATION":"53.0546","MEAN_MOTION_DDOT":"0.0000000000000","EPOCH":"2022-03-30T13:58:22.765152"},{"RA_OF_ASC_NODE":"211.4076","APOAPSIS":"548.358","OBJECT_TYPE":"PAYLOAD","MEAN_ELEMENT_THEORY":"SGP4","OBJECT_NAME":"STARLINK-2180","TLE_LINE2":"2 47762  53.0535 211.4076 0001670  55.9083 304.2064 15.06404081 60480","EPHEMERIS_TYPE":"0","RCS_SIZE":"LARGE","CENTER_NAME":"EARTH","MEAN_MOTION":"15.06404081","CLASSIFICATION_TYPE":"U","ARG_OF_PERICENTER":"55.9083","ECCENTRICITY":"0.00016700","TIME_SYSTEM":"UTC","COUNTRY_CODE":"US","MEAN_ANOMALY":"304.2064","BSTAR":"0.00027924000000","DECAY_DATE":null,"PERIAPSIS":"546.045","FILE":"3380787","MEAN_MOTION_DOT":"0.00003881","OBJECT_ID":"2021-017AS","SEMIMAJOR_AXIS":"6925.336","PERIOD":"95.592","LAUNCH_DATE":"2021-03-04","TLE_LINE1":"1 47762U 21017AS  22089.60751675  .00003881  00000-0  27924-3 0  9992","REV_AT_EPOCH":"6048","SITE":"AFETR","ELEMENT_SET_NO":"999","NORAD_CAT_ID":"47762","REF_FRAME":"TEME","INCLINATION":"53.0535","MEAN_MOTION_DDOT":"0.0000000000000","EPOCH":"2022-03-30T14:34:49.447200","GP_ID":"200097163"},{"MEAN_MOTION_DOT":"0.00002543","OBJECT_ID":"2021-017AT","SEMIMAJOR_AXIS":"6925.347","BSTAR":"0.00018955000000","PERIAPSIS":"545.938","FILE":"3380787","DECAY_DATE":null,"TLE_LINE1":"1 47763U 21017AT  22089.62413298  .00002543  00000-0  18955-3 0  9999","ELEMENT_SET_NO":"999","REV_AT_EPOCH":"6060","SITE":"AFETR","PERIOD":"95.592","LAUNCH_DATE":"2021-03-04","INCLINATION":"53.0554","REF_FRAME":"TEME","MEAN_MOTION_DDOT":"0.0000000000000","EPOCH":"2022-03-30T14:58:45.089472","NORAD_CAT_ID":"47763","GP_ID":"200097914","OBJECT_TYPE":"PAYLOAD","APOAPSIS":"548.485","RA_OF_ASC_NODE":"201.3307","EPHEMERIS_TYPE":"0","RCS_SIZE":"LARGE","MEAN_ELEMENT_THEORY":"SGP4","TLE_LINE2":"2 47763  53.0554 201.3307 0001839  53.8698 306.2461 15.06400601 60604","OBJECT_NAME":"STARLINK-2181","MEAN_MOTION":"15.06400601","ECCENTRICITY":"0.00018390","TIME_SYSTEM":"UTC","CLASSIFICATION_TYPE":"U","ARG_OF_PERICENTER":"53.8698","CENTER_NAME":"EARTH","MEAN_ANOMALY":"306.2461","COUNTRY_CODE":"US"}];
